{"type": "FeatureCollection", "features": [{"type": "Feature", "id": "r03", "properties": {"relacion": "r03", "origen": "mano"}, "geometry": {"type": "LineString", "coordinates": [[35.78, 35.6], [34.6, 35.75], [33.3, 35.8], [31.0, 36.4], [29.69, 36.13], [28.2, 36.3], [26.0, 36.4], [24.0, 36.6], [22.9, 37.6]]}}, {"type": "Feature", "id": "r04", "properties": {"relacion": "r04", "origen": "mano"}, "geometry": {"type": "LineString", "coordinates": [[-5.1, 50.2], [-4.5, 48.2], [-9.0, 43.2], [-9.6, 38.8], [-6.5, 36.6], [-5.4, 35.95], [1.3, 38.7], [8.4, 39.0], [12.8, 37.4], [19.5, 36.0], [24.5, 35.1], [32.4, 34.6]]}}, {"type": "Feature", "id": "r05", "properties": {"relacion": "r05", "origen": "mano"}, "geometry": {"type": "LineString", "coordinates": [[71.0, 37.0], [66.0, 36.5], [62.2, 34.3], [58.5, 33.5], [53.0, 33.0], [48.3, 32.2], [44.4, 32.5]]}}]}